[{"OBJECT_NAME":"PRAETORIAN SDA_619","OBJECT_ID":"2025-203T","EPOCH":"2026-03-09T14:29:57.164640","MEAN_MOTION":13.83929489,"ECCENTRICITY":0.0009419,"INCLINATION":81.3013,"RA_OF_ASC_NODE":102.9558,"ARG_OF_PERICENTER":101.1337,"MEAN_ANOMALY":259.0878,"EPHEMERIS_TYPE":0,"CLASSIFICATION_TYPE":"U","NORAD_CAT_ID":65582,"ELEMENT_SET_NO":999,"REV_AT_EPOCH":2555,"BSTAR":0.00020555,"MEAN_MOTION_DOT":2.4e-6,"MEAN_MOTION_DDOT":0},{"OBJECT_NAME":"COSMOS 2366","OBJECT_ID":"1999-045A","EPOCH":"2026-03-09T21:03:18.115200","MEAN_MOTION":13.74685262,"ECCENTRICITY":0.00302954,"INCLINATION":82.9319,"RA_OF_ASC_NODE":197.8641,"ARG_OF_PERICENTER":274.9871,"MEAN_ANOMALY":197.6996,"EPHEMERIS_TYPE":0,"CLASSIFICATION_TYPE":"U","NORAD_CAT_ID":25892,"ELEMENT_SET_NO":999,"REV_AT_EPOCH":33130,"BSTAR":8.4442261e-5,"MEAN_MOTION_DOT":9.5e-7,"MEAN_MOTION_DDOT":0}]
